STARLINK-36944          
1 68029U 26040Q   26072.58334491 -.01389306  58508-3 -31964-2 0  9997
2 68029  97.2740  21.1185 0001241  98.6418 171.8277 15.97352263  3052
STARLINK-36942          
1 68030U 26040R   26072.58334491 -.01395566  59052-3 -31959-2 0  9993
2 68030  97.2755  21.1212 0001273 101.8225 172.6713 15.97438489  3058
STARLINK-36913          
1 68031U 26040S   26072.58334491 -.01393412  58935-3 -31767-2 0  9998
2 68031  97.2756  21.1228 0001255 103.2638 175.2434 15.97519883  3058
STARLINK-36935          
1 68032U 26040T   26072.58334491 -.01636703  80038-3 -36009-2 0  9995
2 68032  97.2772  21.1342 0001252 104.5728 201.7232 15.98200424  3145
STARLINK-36947          
1 68033U 26040U   26072.58334491 -.01393763  59016-3 -31630-2 0  9999
2 68033  97.2757  21.1243 0001257 103.4155 178.5011 15.97603220  3052
STARLINK-36939          
1 68034U 26040V   26072.58334491 -.01466618  65125-3 -32613-2 0  9990
2 68034  97.2775  21.1311 0001248 108.3336 188.8753 15.97983934  3054
STARLINK-36943          
1 68035U 26040W   26072.52803064 -.08807271  26653-1 -20429-1 0  9995
2 68035  97.2796  21.0808 0026179  53.2440 307.1234 15.94972612  3083
STARLINK-36906          
1 68036U 26040X   26072.58334491 -.01435833  62550-3 -32089-2 0  9993
2 68036  97.2767  21.1294 0001296 104.5404 189.1071 15.97888527  3053
STARLINK-36388          
1 68037U 26040Y   26072.58334491 -.01578554  74752-3 -34892-2 0  9993
2 68037  97.2777  21.1333 0001239 104.7300 197.3142 15.98108521  3008
STARLINK-36895          
1 68038U 26040Z   26072.58334491 -.01408644  60307-3 -31651-2 0  9997
2 68038  97.2755  21.1268 0001311 103.2766 186.5689 15.97786549  3055
STARLINK-36373          
1 68039U 26040AA  26072.58334491 -.01400136  59576-3 -31614-2 0  9991
2 68039  97.2755  21.1256 0001247  99.3155 186.1434 15.97696413  3007
STARLINK-36711          
1 68040U 26041A   26072.58334491 -.00076108  00000+0 -38461-3 0  9993
2 68040  53.1594  42.6297 0001034  79.9636 294.1986 15.80920300  3005
