CCSDS_OMM_VERS = 2.0
CREATION_DATE  = 
ORIGINATOR     = 

OBJECT_NAME    = STARLINK-36944
OBJECT_ID      = 2026-040Q
CENTER_NAME    = EARTH
REF_FRAME      = TEME
TIME_SYSTEM    = UTC
MEAN_ELEMENT_THEORY = SGP/SGP4

EPOCH          = 2026-03-13T14:00:01.000224
MEAN_MOTION    = 15.97352263
ECCENTRICITY   = .00012414
INCLINATION    = 97.2740
RA_OF_ASC_NODE = 21.1185
ARG_OF_PERICENTER = 98.6418
MEAN_ANOMALY   = 171.8277

EPHEMERIS_TYPE = 0
CLASSIFICATION_TYPE = U
NORAD_CAT_ID   = 68029
ELEMENT_SET_NO = 999
REV_AT_EPOCH   = 305
BSTAR          = -.31964311E-2
MEAN_MOTION_DOT = -.1389306E-1
MEAN_MOTION_DDOT = .58508356E-3

CCSDS_OMM_VERS = 2.0
CREATION_DATE  = 
ORIGINATOR     = 

OBJECT_NAME    = STARLINK-36942
OBJECT_ID      = 2026-040R
CENTER_NAME    = EARTH
REF_FRAME      = TEME
TIME_SYSTEM    = UTC
MEAN_ELEMENT_THEORY = SGP/SGP4

EPOCH          = 2026-03-13T14:00:01.000224
MEAN_MOTION    = 15.97438489
ECCENTRICITY   = .00012734
INCLINATION    = 97.2755
RA_OF_ASC_NODE = 21.1212
ARG_OF_PERICENTER = 101.8225
MEAN_ANOMALY   = 172.6713

EPHEMERIS_TYPE = 0
CLASSIFICATION_TYPE = U
NORAD_CAT_ID   = 68030
ELEMENT_SET_NO = 999
REV_AT_EPOCH   = 305
BSTAR          = -.31958662E-2
MEAN_MOTION_DOT = -.1395566E-1
MEAN_MOTION_DDOT = .59052061E-3

CCSDS_OMM_VERS = 2.0
CREATION_DATE  = 
ORIGINATOR     = 

OBJECT_NAME    = STARLINK-36913
OBJECT_ID      = 2026-040S
CENTER_NAME    = EARTH
REF_FRAME      = TEME
TIME_SYSTEM    = UTC
MEAN_ELEMENT_THEORY = SGP/SGP4

EPOCH          = 2026-03-13T14:00:01.000224
MEAN_MOTION    = 15.97519883
ECCENTRICITY   = .0001255
INCLINATION    = 97.2756
RA_OF_ASC_NODE = 21.1228
ARG_OF_PERICENTER = 103.2638
MEAN_ANOMALY   = 175.2434

EPHEMERIS_TYPE = 0
CLASSIFICATION_TYPE = U
NORAD_CAT_ID   = 68031
ELEMENT_SET_NO = 999
REV_AT_EPOCH   = 305
BSTAR          = -.31766992E-2
MEAN_MOTION_DOT = -.1393412E-1
MEAN_MOTION_DDOT = .58935111E-3

CCSDS_OMM_VERS = 2.0
CREATION_DATE  = 
ORIGINATOR     = 

OBJECT_NAME    = STARLINK-36935
OBJECT_ID      = 2026-040T
CENTER_NAME    = EARTH
REF_FRAME      = TEME
TIME_SYSTEM    = UTC
MEAN_ELEMENT_THEORY = SGP/SGP4

EPOCH          = 2026-03-13T14:00:01.000224
MEAN_MOTION    = 15.98200424
ECCENTRICITY   = .00012527
INCLINATION    = 97.2772
RA_OF_ASC_NODE = 21.1342
ARG_OF_PERICENTER = 104.5728
MEAN_ANOMALY   = 201.7232

EPHEMERIS_TYPE = 0
CLASSIFICATION_TYPE = U
NORAD_CAT_ID   = 68032
ELEMENT_SET_NO = 999
REV_AT_EPOCH   = 314
BSTAR          = -.36009417E-2
MEAN_MOTION_DOT = -.1636703E-1
MEAN_MOTION_DDOT = .80037518E-3

CCSDS_OMM_VERS = 2.0
CREATION_DATE  = 
ORIGINATOR     = 

OBJECT_NAME    = STARLINK-36947
OBJECT_ID      = 2026-040U
CENTER_NAME    = EARTH
REF_FRAME      = TEME
TIME_SYSTEM    = UTC
MEAN_ELEMENT_THEORY = SGP/SGP4

EPOCH          = 2026-03-13T14:00:01.000224
MEAN_MOTION    = 15.97603220
ECCENTRICITY   = .00012574
INCLINATION    = 97.2757
RA_OF_ASC_NODE = 21.1243
ARG_OF_PERICENTER = 103.4155
MEAN_ANOMALY   = 178.5011

EPHEMERIS_TYPE = 0
CLASSIFICATION_TYPE = U
NORAD_CAT_ID   = 68033
ELEMENT_SET_NO = 999
REV_AT_EPOCH   = 305
BSTAR          = -.3163026E-2
MEAN_MOTION_DOT = -.1393763E-1
MEAN_MOTION_DDOT = .59015618E-3

CCSDS_OMM_VERS = 2.0
CREATION_DATE  = 
ORIGINATOR     = 

OBJECT_NAME    = STARLINK-36939
OBJECT_ID      = 2026-040V
CENTER_NAME    = EARTH
REF_FRAME      = TEME
TIME_SYSTEM    = UTC
MEAN_ELEMENT_THEORY = SGP/SGP4

EPOCH          = 2026-03-13T14:00:01.000224
MEAN_MOTION    = 15.97983934
ECCENTRICITY   = .00012481
INCLINATION    = 97.2775
RA_OF_ASC_NODE = 21.1311
ARG_OF_PERICENTER = 108.3336
MEAN_ANOMALY   = 188.8753

EPHEMERIS_TYPE = 0
CLASSIFICATION_TYPE = U
NORAD_CAT_ID   = 68034
ELEMENT_SET_NO = 999
REV_AT_EPOCH   = 305
BSTAR          = -.32613019E-2
MEAN_MOTION_DOT = -.1466618E-1
MEAN_MOTION_DDOT = .65124742E-3

CCSDS_OMM_VERS = 2.0
CREATION_DATE  = 
ORIGINATOR     = 

OBJECT_NAME    = STARLINK-36943
OBJECT_ID      = 2026-040W
CENTER_NAME    = EARTH
REF_FRAME      = TEME
TIME_SYSTEM    = UTC
MEAN_ELEMENT_THEORY = SGP/SGP4

EPOCH          = 2026-03-13T12:40:21.847296
MEAN_MOTION    = 15.94972612
ECCENTRICITY   = .00261791
INCLINATION    = 97.2796
RA_OF_ASC_NODE = 21.0808
ARG_OF_PERICENTER = 53.2440
MEAN_ANOMALY   = 307.1234

EPHEMERIS_TYPE = 0
CLASSIFICATION_TYPE = U
NORAD_CAT_ID   = 68035
ELEMENT_SET_NO = 999
REV_AT_EPOCH   = 308
BSTAR          = -.20428614E-1
MEAN_MOTION_DOT = -.8807271E-1
MEAN_MOTION_DDOT = .2665346E-1

CCSDS_OMM_VERS = 2.0
CREATION_DATE  = 
ORIGINATOR     = 

OBJECT_NAME    = STARLINK-36906
OBJECT_ID      = 2026-040X
CENTER_NAME    = EARTH
REF_FRAME      = TEME
TIME_SYSTEM    = UTC
MEAN_ELEMENT_THEORY = SGP/SGP4

EPOCH          = 2026-03-13T14:00:01.000224
MEAN_MOTION    = 15.97888527
ECCENTRICITY   = .00012963
INCLINATION    = 97.2767
RA_OF_ASC_NODE = 21.1294
ARG_OF_PERICENTER = 104.5404
MEAN_ANOMALY   = 189.1071

EPHEMERIS_TYPE = 0
CLASSIFICATION_TYPE = U
NORAD_CAT_ID   = 68036
ELEMENT_SET_NO = 999
REV_AT_EPOCH   = 305
BSTAR          = -.32088713E-2
MEAN_MOTION_DOT = -.1435833E-1
MEAN_MOTION_DDOT = .62549605E-3

CCSDS_OMM_VERS = 2.0
CREATION_DATE  = 
ORIGINATOR     = 

OBJECT_NAME    = STARLINK-36388
OBJECT_ID      = 2026-040Y
CENTER_NAME    = EARTH
REF_FRAME      = TEME
TIME_SYSTEM    = UTC
MEAN_ELEMENT_THEORY = SGP/SGP4

EPOCH          = 2026-03-13T14:00:01.000224
MEAN_MOTION    = 15.98108521
ECCENTRICITY   = .00012396
INCLINATION    = 97.2777
RA_OF_ASC_NODE = 21.1333
ARG_OF_PERICENTER = 104.7300
MEAN_ANOMALY   = 197.3142

EPHEMERIS_TYPE = 0
CLASSIFICATION_TYPE = U
NORAD_CAT_ID   = 68037
ELEMENT_SET_NO = 999
REV_AT_EPOCH   = 300
BSTAR          = -.34891702E-2
MEAN_MOTION_DOT = -.1578554E-1
MEAN_MOTION_DDOT = .74751773E-3

CCSDS_OMM_VERS = 2.0
CREATION_DATE  = 
ORIGINATOR     = 

OBJECT_NAME    = STARLINK-36895
OBJECT_ID      = 2026-040Z
CENTER_NAME    = EARTH
REF_FRAME      = TEME
TIME_SYSTEM    = UTC
MEAN_ELEMENT_THEORY = SGP/SGP4

EPOCH          = 2026-03-13T14:00:01.000224
MEAN_MOTION    = 15.97786549
ECCENTRICITY   = .0001311
INCLINATION    = 97.2755
RA_OF_ASC_NODE = 21.1268
ARG_OF_PERICENTER = 103.2766
MEAN_ANOMALY   = 186.5689

EPHEMERIS_TYPE = 0
CLASSIFICATION_TYPE = U
NORAD_CAT_ID   = 68038
ELEMENT_SET_NO = 999
REV_AT_EPOCH   = 305
BSTAR          = -.31651325E-2
MEAN_MOTION_DOT = -.1408644E-1
MEAN_MOTION_DDOT = .6030693E-3

CCSDS_OMM_VERS = 2.0
CREATION_DATE  = 
ORIGINATOR     = 

OBJECT_NAME    = STARLINK-36373
OBJECT_ID      = 2026-040AA
CENTER_NAME    = EARTH
REF_FRAME      = TEME
TIME_SYSTEM    = UTC
MEAN_ELEMENT_THEORY = SGP/SGP4

EPOCH          = 2026-03-13T14:00:01.000224
MEAN_MOTION    = 15.97696413
ECCENTRICITY   = .00012479
INCLINATION    = 97.2755
RA_OF_ASC_NODE = 21.1256
ARG_OF_PERICENTER = 99.3155
MEAN_ANOMALY   = 186.1434

EPHEMERIS_TYPE = 0
CLASSIFICATION_TYPE = U
NORAD_CAT_ID   = 68039
ELEMENT_SET_NO = 999
REV_AT_EPOCH   = 300
BSTAR          = -.31614475E-2
MEAN_MOTION_DOT = -.1400136E-1
MEAN_MOTION_DDOT = .59576288E-3

CCSDS_OMM_VERS = 2.0
CREATION_DATE  = 
ORIGINATOR     = 

OBJECT_NAME    = STARLINK-36711
OBJECT_ID      = 2026-041A
CENTER_NAME    = EARTH
REF_FRAME      = TEME
TIME_SYSTEM    = UTC
MEAN_ELEMENT_THEORY = SGP/SGP4

EPOCH          = 2026-03-13T14:00:01.000224
MEAN_MOTION    = 15.80920300
ECCENTRICITY   = .00010348
INCLINATION    = 53.1594
RA_OF_ASC_NODE = 42.6297
ARG_OF_PERICENTER = 79.9636
MEAN_ANOMALY   = 294.1986

EPHEMERIS_TYPE = 0
CLASSIFICATION_TYPE = U
NORAD_CAT_ID   = 68040
ELEMENT_SET_NO = 999
REV_AT_EPOCH   = 300
BSTAR          = -.38461387E-3
MEAN_MOTION_DOT = -.76108E-3
MEAN_MOTION_DDOT = 0

